NORAD_CAT_ID,OBJECT_NAME,OBJECT_TYPE,EPOCH,MEAN_MOTION,ECCENTRICITY,INCLINATION,RA_OF_ASC_NODE,ARG_OF_PERICENTER,MEAN_ANOMALY,BSTAR,MEAN_MOTION_DOT,MEAN_MOTION_DDOT,TLE_LINE0,TLE_LINE1,TLE_LINE2,SEMIMAJOR_AXIS,PERIOD,APOGEE,PERIGEE,DECAYED
52312.0,STARLINK-3752,PAYLOAD,2024-07-02 19:32:55,15.08851169,0.0001098,53.2161,329.3576,86.4953,273.6164,0.00070914,0.00011019,0.0,0 STARLINK-3752,1 52312U 22041BD  24184.81453431  .00011019  00000-0  70914-3 0  9996,2 52312  53.2161 329.3576 0001098  86.4953 273.6164 15.08851169123044,6917.846,95.437,540.471,538.952,0.0
52312.0,STARLINK-3752,PAYLOAD,2024-07-03 13:02:10,15.08841411,0.000114,53.214,326.0815,93.0146,267.0977,0.00041861,6.381e-05,0.0,0 STARLINK-3752,1 52312U 22041BD  24185.54317915  .00006381  00000-0  41861-3 0  9998,2 52312  53.2140 326.0815 0001140  93.0146 267.0977 15.08841411123157,6917.876,95.437,540.53,538.952,0.0
52312.0,STARLINK-3752,PAYLOAD,2024-07-03 16:12:56,15.08844018,0.0001031,53.2153,325.4906,79.8144,280.2964,0.0004218,6.432e-05,0.0,0 STARLINK-3752,1 52312U 22041BD  24185.67565914  .00006432  00000-0  42180-3 0  9998,2 52312  53.2153 325.4906 0001031  79.8144 280.2964 15.08844018123175,6917.868,95.437,540.446,539.02,0.0
52312.0,STARLINK-3752,PAYLOAD,2024-07-04 04:56:02,15.0883887,0.0001261,53.2168,323.1146,86.4131,273.7005,0.00021095,3.071e-05,0.0,0 STARLINK-3752,1 52312U 22041BD  24186.20558149  .00003071  00000-0  21095-3 0  9998,2 52312  53.2168 323.1146 0001261  86.4131 273.7005 15.08838870123258,6917.884,95.438,540.621,538.876,0.0
52312.0,STARLINK-3752,PAYLOAD,2024-07-04 14:28:20,15.08844153,0.0001277,53.217,321.3307,86.7871,273.3267,0.00034731,5.244e-05,0.0,0 STARLINK-3752,1 52312U 22041BD  24186.60302072  .00005244  00000-0  34731-3 0  9999,2 52312  53.2170 321.3307 0001277  86.7871 273.3267 15.08844153123315,6917.868,95.437,540.616,538.849,0.0
52312.0,STARLINK-3752,PAYLOAD,2024-07-04 16:03:44,15.08848482,0.0001255,53.217,321.0335,88.0302,272.0833,0.00044224,6.759e-05,0.0,0 STARLINK-3752,1 52312U 22041BD  24186.66925932  .00006759  00000-0  44224-3 0  9991,2 52312  53.2170 321.0335 0001255  88.0302 272.0833 15.08848482123328,6917.854,95.437,540.588,538.851,0.0
52312.0,STARLINK-3752,PAYLOAD,2024-07-05 12:43:44,15.08840912,0.0001302,53.2178,317.1692,98.7365,261.3775,4.0863e-05,3.63e-06,0.0,0 STARLINK-3752,1 52312U 22041BD  24187.53037871  .00000363  00000-0  40863-4 0  9995,2 52312  53.2178 317.1692 0001302  98.7365 261.3775 15.08840912123458,6917.878,95.437,540.643,538.842,0.0
52312.0,STARLINK-3752,PAYLOAD,2024-07-05 14:19:07,15.08841129,0.0001306,53.2174,316.8722,96.0392,264.0749,5.6187e-05,6.06e-06,0.0,0 STARLINK-3752,1 52312U 22041BD  24187.59661906  .00000606  00000-0  56187-4 0  9999,2 52312  53.2174 316.8722 0001306  96.0392 264.0749 15.08841129123462,6917.877,95.437,540.645,538.838,0.0
52312.0,STARLINK-3752,PAYLOAD,2024-07-05 15:54:30,15.08842352,0.0001286,53.2178,316.5751,99.0365,261.0772,7.5924e-05,9.21e-06,0.0,0 STARLINK-3752,1 52312U 22041BD  24187.66285825  .00000921  00000-0  75924-4 0  9999,2 52312  53.2178 316.5751 0001286  99.0365 261.0772 15.08842352123478,6917.873,95.437,540.628,538.849,0.0
52312.0,STARLINK-3752,PAYLOAD,2024-07-06 12:34:32,15.08834101,0.0001297,53.2182,312.7097,97.4624,262.6515,-9.5812e-05,-1.812e-05,0.0,0 STARLINK-3752,1 52312U 22041BD  24188.52398324 -.00001812  00000-0 -95812-4 0  9994,2 52312  53.2182 312.7097 0001297  97.4624 262.6515 15.08834101123606,6917.898,95.438,540.661,538.866,0.0
52312.0,STARLINK-3752,PAYLOAD,2024-07-06 14:09:55,15.08834444,0.0001372,53.217,312.4107,88.0821,272.0328,-2.5148e-05,-6.88e-06,0.0,0 STARLINK-3752,1 52312U 22041BD  24188.59022378 -.00000688  00000-0 -25148-4 0  9999,2 52312  53.2170 312.4107 0001372  88.0821 272.0328 15.08834444123619,6917.897,95.438,540.712,538.813,0.0
52312.0,STARLINK-3752,PAYLOAD,2024-07-07 14:00:42,15.08842249,0.0001444,53.2186,307.95,92.7788,267.3369,0.00010853,1.44e-05,0.0,0 STARLINK-3752,1 52312U 22041BD  24189.58382256  .00001440  00000-0  10853-3 0  9994,2 52312  53.2186 307.9500 0001444  92.7788 267.3369 15.08842249123766,6917.874,95.437,540.737,538.74,0.0
52312.0,STARLINK-3752,PAYLOAD,2024-07-07 15:36:05,15.08843688,0.0001261,53.2168,307.6517,80.0964,280.0171,0.00012992,1.781e-05,0.0,0 STARLINK-3752,1 52312U 22041BD  24189.65006098  .00001781  00000-0  12992-3 0  9993,2 52312  53.2168 307.6517 0001261  80.0964 280.0171 15.08843688123776,6917.869,95.437,540.606,538.862,0.0
52312.0,STARLINK-3752,PAYLOAD,2024-07-08 13:51:29,15.0884177,0.0001217,53.2166,303.49,86.0204,274.0927,0.00015005,2.101e-05,0.0,0 STARLINK-3752,1 52312U 22041BD  24190.57742120  .00002101  00000-0  15005-3 0  9994,2 52312  53.2166 303.4900 0001217  86.0204 274.0927 15.08841770123916,6917.875,95.437,540.582,538.898,0.0
52312.0,STARLINK-3752,PAYLOAD,2024-07-09 00:59:10,15.0884502,0.0001123,53.2168,301.408,87.8432,272.2688,0.00010556,1.393e-05,0.0,0 STARLINK-3752,1 52312U 22041BD  24191.04109860  .00001393  00000-0  10556-3 0  9993,2 52312  53.2168 301.4080 0001123  87.8432 272.2688 15.08845020123986,6917.865,95.437,540.507,538.953,0.0
52312.0,STARLINK-3752,PAYLOAD,2024-07-09 13:42:16,15.0883857,0.0001173,53.2154,299.0285,88.3658,271.7469,4.8275e-05,4.81e-06,0.0,0 STARLINK-3752,1 52312U 22041BD  24191.57102335  .00000481  00000-0  48275-4 0  9998,2 52312  53.2154 299.0285 0001173  88.3658 271.7469 15.08838570124064,6917.885,95.438,540.561,538.938,0.0
52312.0,STARLINK-3752,PAYLOAD,2024-07-09 16:53:02,15.08849592,0.0001371,53.2168,298.4292,107.8362,252.278,1.4314e-05,-6e-07,0.0,0 STARLINK-3752,1 52312U 22041BD  24191.70349609 -.00000060  00000-0  14314-4 0  9991,2 52312  53.2168 298.4292 0001371 107.8362 252.2780 15.08849592124087,6917.851,95.437,540.665,538.768,0.0
52312.0,STARLINK-3752,PAYLOAD,2024-07-10 10:22:17,15.08836524,0.0001407,53.2168,295.1544,104.2445,255.8703,-1.6023e-05,-5.43e-06,0.0,0 STARLINK-3752,1 52312U 22041BD  24192.43214632 -.00000543  00000-0 -16023-4 0  9995,2 52312  53.2168 295.1544 0001407 104.2445 255.8703 15.08836524124191,6917.891,95.438,540.729,538.783,0.0
52312.0,STARLINK-3752,PAYLOAD,2024-07-10 16:43:50,15.08837542,0.0001665,53.2178,293.9662,123.7918,236.3233,-7.8313e-05,-1.534e-05,0.0,0 STARLINK-3752,1 52312U 22041BD  24192.69710784 -.00001534  00000-0 -78313-4 0  9993,2 52312  53.2178 293.9662 0001665 123.7918 236.3233 15.08837542124234,6917.888,95.438,540.905,538.601,0.0
52312.0,STARLINK-3752,PAYLOAD,2024-07-11 13:23:49,15.08855699,0.0001351,53.2176,290.1047,102.4804,257.6339,-5.7483e-06,-3.79e-06,0.0,0 STARLINK-3752,1 52312U 22041BD  24193.55821687 -.00000379  00000-0 -57483-5 0  9996,2 52312  53.2176 290.1047 0001351 102.4804 257.6339 15.08855699124368,6917.832,95.437,540.632,538.763,0.0
52312.0,STARLINK-3752,PAYLOAD,2024-07-11 16:34:36,15.08844858,0.0001341,53.2171,289.5093,92.3333,267.7813,0.00019855,2.874e-05,0.0,0 STARLINK-3752,1 52312U 22041BD  24193.69069898  .00002874  00000-0  19855-3 0  9998,2 52312  53.2171 289.5093 0001341  92.3333 267.7813 15.08844858124385,6917.866,95.437,540.658,538.803,0.0
52312.0,STARLINK-3752,PAYLOAD,2024-07-12 13:14:37,15.08843776,0.0001302,53.2155,285.6465,90.5049,269.6092,0.00018141,2.601e-05,0.0,0 STARLINK-3752,1 52312U 22041BD  24194.55182589  .00002601  00000-0  18141-3 0  9992,2 52312  53.2155 285.6465 0001302  90.5049 269.6092 15.08843776124511,6917.869,95.437,540.635,538.833,0.0
52312.0,STARLINK-3752,PAYLOAD,2024-07-13 13:05:24,15.08839477,0.0001521,53.2171,281.1897,100.8377,259.2786,4.7827e-05,4.73e-06,0.0,0 STARLINK-3752,1 52312U 22041BD  24195.54542817  .00000473  00000-0  47827-4 0  9995,2 52312  53.2171 281.1897 0001521 100.8377 259.2786 15.08839477124665,6917.882,95.438,540.799,538.695,0.0
52312.0,STARLINK-3752,PAYLOAD,2024-07-13 22:37:43,15.08840604,0.0001444,53.2168,279.4051,90.4554,269.6604,8.778e-05,1.109e-05,0.0,0 STARLINK-3752,1 52312U 22041BD  24195.94286773  .00001109  00000-0  87780-4 0  9994,2 52312  53.2168 279.4051 0001444  90.4554 269.6604 15.08840604124723,6917.879,95.438,540.742,538.745,0.0
52312.0,STARLINK-3752,PAYLOAD,2024-07-14 12:56:11,15.08850513,0.0001359,53.2158,276.7277,91.1467,268.9681,0.00029743,4.45e-05,0.0,0 STARLINK-3752,1 52312U 22041BD  24196.53902476  .00004450  00000-0  29743-3 0  9991,2 52312  53.2158 276.7277 0001359  91.1467 268.9681 15.08850513124815,6917.848,95.437,540.653,538.773,0.0
52312.0,STARLINK-3752,PAYLOAD,2024-07-14 22:28:30,15.0884743,0.0001406,53.2156,274.9402,80.6878,279.4273,0.00019646,2.841e-05,0.0,0 STARLINK-3752,1 52312U 22041BD  24196.93646506  .00002841  00000-0  19646-3 0  9997,2 52312  53.2156 274.9402 0001406  80.6878 279.4273 15.08847430124879,6917.858,95.437,540.695,538.75,0.0
52312.0,STARLINK-3752,PAYLOAD,2024-07-15 12:46:59,15.0884364,0.0001394,53.2147,272.2651,82.7094,277.4056,0.00012457,1.695e-05,0.0,0 STARLINK-3752,1 52312U 22041BD  24197.53262797  .00001695  00000-0  12457-3 0  9999,2 52312  53.2147 272.2651 0001394  82.7094 277.4056 15.08843640124961,6917.869,95.437,540.699,538.77,0.0
52312.0,STARLINK-3752,PAYLOAD,2024-07-15 14:22:21,15.08847272,0.0001398,53.2144,271.9668,82.6556,277.4595,0.00019742,2.856e-05,0.0,0 STARLINK-3752,1 52312U 22041BD  24197.59886555  .00002856  00000-0  19742-3 0  9993,2 52312  53.2144 271.9668 0001398  82.6556 277.4595 15.08847272124972,6917.858,95.437,540.69,538.756,0.0
52312.0,STARLINK-3752,PAYLOAD,2024-07-15 22:19:17,15.08840083,0.0001314,53.2143,270.4792,86.7486,273.3657,5.3377e-05,5.62e-06,0.0,0 STARLINK-3752,1 52312U 22041BD  24197.93006774  .00000562  00000-0  53377-4 0  9993,2 52312  53.2143 270.4792 0001314  86.7486 273.3657 15.08840083125022,6917.88,95.438,540.654,538.836,0.0
52312.0,STARLINK-3752,PAYLOAD,2024-07-16 11:02:22,15.08845272,0.0001328,53.214,268.1021,88.8914,271.223,0.00011752,1.583e-05,0.0,0 STARLINK-3752,1 52312U 22041BD  24198.45998663  .00001583  00000-0  11752-3 0  9992,2 52312  53.2140 268.1021 0001328  88.8914 271.2230 15.08845272125100,6917.864,95.437,540.648,538.811,0.0
